GLOBALSTAR M068 [-]     
1 32266U 07048D   22116.69702104 -.00000070  00000+0  18737-3 0  9995
2 32266  51.9876 199.8786 0001141 123.7282 359.7075 12.62734154672586
GLOBALSTAR M079 [+]     
1 37188U 10054A   22117.21957444 -.00000101  00000+0  17285-4 0  9995
2 37188  52.0065  31.3424 0000514  66.6568  98.2283 12.62269696532282
GLOBALSTAR M074 [+]     
1 37189U 10054B   22116.90939466 -.00000098  00000+0  33298-4 0  9992
2 37189  52.0042  31.7874 0000660  77.1797 357.6584 12.62267151532172
GLOBALSTAR M076 [+]     
1 37190U 10054C   22116.85718044 -.00000101  00000+0  16175-4 0  9995
2 37190  52.0056  32.0124 0000651  33.1015  44.2999 12.62274266531887
GLOBALSTAR M077 [+]     
1 37191U 10054D   22116.91011108 -.00000079  00000+0  13723-3 0  9999
2 37191  52.0093 348.3796 0000878  84.8747 293.1848 12.62269802532994
GLOBALSTAR M075 [+]     
1 37192U 10054E   22116.65338443 -.00000104  00000+0 -11770-5 0  9997
2 37192  51.9951  75.5243 0000327  33.4821 137.7299 12.62265301531086
GLOBALSTAR M073 [+]     
1 37193U 10054F   22116.87182437 -.00000076  00000+0  15564-3 0  9992
2 37193  52.0079 347.8097 0000763  85.8768 358.5207 12.62265014532946
GLOBALSTAR M083 [+]     
1 37739U 11033A   22117.22093323 -.00000061  00000+0  23761-3 0  9993
2 37739  51.9858 297.0457 0000673 123.1933  48.0678 12.62267751502367
GLOBALSTAR M088 [+]     
1 37740U 11033B   22116.52606605 -.00000092  00000+0  65022-4 0  9991
2 37740  51.9726 205.6165 0000334 175.1564 197.9704 12.62263542497467
GLOBALSTAR M091 [+]     
1 37741U 11033C   22116.89100586 -.00000085  00000+0  10355-3 0  9999
2 37741  51.9978 166.0076 0000235 188.5897 342.7504 12.62265393498291
GLOBALSTAR M085 [+]     
1 37742U 11033D   22117.23876491 -.00000084  00000+0  11120-3 0  9994
2 37742  51.9845 117.0012 0000113  51.5549 320.8538 12.62265424499345
GLOBALSTAR M081 [+]     
1 37743U 11033E   22117.20096074 -.00000084  00000+0  11306-3 0  9999
2 37743  51.9936 119.1965 0000166 341.4197  98.6544 12.62270067499374
GLOBALSTAR M089 [+]     
1 37744U 11033F   22116.62727995 -.00000105  00000+0 -81511-5 0  9990
2 37744  51.9933  75.3855 0000725  50.2373 121.7035 12.62265408499764
GLOBALSTAR M084 [+]     
1 38040U 11080A   22116.76401506 -.00000086  00000+0  99578-4 0  9992
2 38040  52.0007 301.6550 0000837  93.2382 280.2010 12.62265684477762
GLOBALSTAR M080 [+]     
1 38041U 11080B   22116.83689868 -.00000084  00000+0  10929-3 0  9990
2 38041  52.0059 302.6380 0000817  85.7189  18.1948 12.62267772477893
GLOBALSTAR M082 [+]     
1 38042U 11080C   22116.67184661 -.00000106  00000+0 -10847-4 0  9990
2 38042  52.0068 258.4641 0000924 145.6455 227.7762 12.62264060478589
GLOBALSTAR M092 [+]     
1 38043U 11080D   22116.88269640 -.00000077  00000+0  14767-3 0  9995
2 38043  52.0103 348.1347 0001079  81.0080 292.8607 12.62271568477063
GLOBALSTAR M090 [+]     
1 38044U 11080E   22116.69771847 -.00000115  00000+0 -61579-4 0  9990
2 38044  51.9879 253.6706 0000555 138.1926 234.7788 12.62267292478708
GLOBALSTAR M086 [+]     
1 38045U 11080F   22116.82670378 -.00000106  00000+0 -14160-4 0  9997
2 38045  51.9893 253.7401 0000641 315.1364 164.1424 12.62266209478662
GLOBALSTAR M097 [+]     
1 39072U 13005A   22116.43130955 -.00000081  00000+0  12733-3 0  9990
2 39072  52.0027 168.3248 0000239 218.4005 141.6845 12.62263803425862
GLOBALSTAR M093 [+]     
1 39073U 13005B   22116.80043287 -.00000092  00000+0  67679-4 0  9995
2 39073  51.9788 162.3397 0000334 234.3591 125.7244 12.62266955425864
GLOBALSTAR M094 [+]     
1 39074U 13005C   22116.80071945 -.00000109  00000+0 -28239-4 0  9997
2 39074  51.9959  75.5733 0000344  44.8225 315.2669 12.62266674427477
GLOBALSTAR M096 [+]     
1 39075U 13005D   22116.73488890 -.00000105  00000+0 -62434-5 0  9993
2 39075  52.0057 123.3939 0000129 316.4138  43.6718 12.62268048426384
GLOBALSTAR M078 [+]     
1 39076U 13005E   22116.70799474 -.00000090  00000+0  78341-4 0  9999
2 39076  51.9869 209.5442 0001182 149.8628 210.2306 12.62267831425004
GLOBALSTAR M095 [+]     
1 39077U 13005F   22116.73474387 -.00000100  00000+0  20465-4 0  9992
2 39077  51.9792 207.2322 0000851 171.6500 188.4381 12.62268549424865
